{
"type": "FeatureCollection",
"name": "cities",
"crs": { "type": "name", "properties": { "name": "urn:ogc:def:crs:OGC:1.3:CRS84" } },
"features": [
{ "type": "Feature", "properties": { "name": "Chicago", "STATEFP": "17", "city_class": 1 }, "geometry": { "type": "Point", "coordinates": [ -87.665509384635811, 41.835248925368688 ] } },
{ "type": "Feature", "properties": { "name": "Dallas", "STATEFP": "13", "city_class": 1 }, "geometry": { "type": "Point", "coordinates": [ -84.836627989220744, 33.917461012831389 ] } },
{ "type": "Feature", "properties": { "name": "Dallas", "STATEFP": "37", "city_class": 1 }, "geometry": { "type": "Point", "coordinates": [ -81.187424540190392, 35.317643198799516 ] } },
{ "type": "Feature", "properties": { "name": "Dallas", "STATEFP": "41", "city_class": 1 }, "geometry": { "type": "Point", "coordinates": [ -123.313769808244984, 44.922998533877305 ] } },
{ "type": "Feature", "properties": { "name": "Dallas", "STATEFP": "42", "city_class": 1 }, "geometry": { "type": "Point", "coordinates": [ -75.975927455917301, 41.329950377859021 ] } },
{ "type": "Feature", "properties": { "name": "Dallas", "STATEFP": "46", "city_class": 1 }, "geometry": { "type": "Point", "coordinates": [ -99.516677881812086, 43.238384683577564 ] } },
{ "type": "Feature", "properties": { "name": "Dallas", "STATEFP": "48", "city_class": 1 }, "geometry": { "type": "Point", "coordinates": [ -96.784134845837258, 32.816035223802999 ] } },
{ "type": "Feature", "properties": { "name": "Dallas", "STATEFP": "55", "city_class": 1 }, "geometry": { "type": "Point", "coordinates": [ -91.814237308957246, 45.25903589805133 ] } },
{ "type": "Feature", "properties": { "name": "Houston", "STATEFP": "05", "city_class": 1 }, "geometry": { "type": "Point", "coordinates": [ -92.694503218785457, 35.035573382365378 ] } },
{ "type": "Feature", "properties": { "name": "Houston", "STATEFP": "10", "city_class": 1 }, "geometry": { "type": "Point", "coordinates": [ -75.50389539280846, 38.917737560505259 ] } },
{ "type": "Feature", "properties": { "name": "Houston", "STATEFP": "27", "city_class": 1 }, "geometry": { "type": "Point", "coordinates": [ -91.571168974382473, 43.756821778555782 ] } },
{ "type": "Feature", "properties": { "name": "Houston", "STATEFP": "28", "city_class": 1 }, "geometry": { "type": "Point", "coordinates": [ -89.00080371630213, 33.902700103486239 ] } },
{ "type": "Feature", "properties": { "name": "Houston", "STATEFP": "29", "city_class": 1 }, "geometry": { "type": "Point", "coordinates": [ -91.965570135401776, 37.319557585277039 ] } },
{ "type": "Feature", "properties": { "name": "Houston", "STATEFP": "42", "city_class": 1 }, "geometry": { "type": "Point", "coordinates": [ -80.212222900108401, 40.249616352230071 ] } },
{ "type": "Feature", "properties": { "name": "Houston", "STATEFP": "48", "city_class": 1 }, "geometry": { "type": "Point", "coordinates": [ -95.451817795347182, 29.827598341296572 ] } },
{ "type": "Feature", "properties": { "name": "Los Angeles", "STATEFP": "06", "city_class": 1 }, "geometry": { "type": "Point", "coordinates": [ -118.285295001061002, 34.040148099972853 ] } },
{ "type": "Feature", "properties": { "name": "Los Angeles", "STATEFP": "48", "city_class": 1 }, "geometry": { "type": "Point", "coordinates": [ -97.786345319008277, 26.494605822787392 ] } },
{ "type": "Feature", "properties": { "name": "New York", "STATEFP": "12", "city_class": 1 }, "geometry": { "type": "Point", "coordinates": [ -87.234817271040058, 30.83823797730944 ] } },
{ "type": "Feature", "properties": { "name": "New York", "STATEFP": "36", "city_class": 1 }, "geometry": { "type": "Point", "coordinates": [ -73.886366552180291, 40.666734949976089 ] } },
{ "type": "Feature", "properties": { "name": "Philadelphia", "STATEFP": "18", "city_class": 1 }, "geometry": { "type": "Point", "coordinates": [ -85.847571889835805, 39.782254276079534 ] } },
{ "type": "Feature", "properties": { "name": "Philadelphia", "STATEFP": "28", "city_class": 1 }, "geometry": { "type": "Point", "coordinates": [ -89.115729145593519, 32.780373115250931 ] } },
{ "type": "Feature", "properties": { "name": "Philadelphia", "STATEFP": "29", "city_class": 1 }, "geometry": { "type": "Point", "coordinates": [ -91.739093767888491, 39.837680556918286 ] } },
{ "type": "Feature", "properties": { "name": "Philadelphia", "STATEFP": "36", "city_class": 1 }, "geometry": { "type": "Point", "coordinates": [ -75.708830948126717, 44.153346687486049 ] } },
{ "type": "Feature", "properties": { "name": "Philadelphia", "STATEFP": "42", "city_class": 1 }, "geometry": { "type": "Point", "coordinates": [ -75.138344806142626, 40.006949530191399 ] } },
{ "type": "Feature", "properties": { "name": "Philadelphia", "STATEFP": "47", "city_class": 1 }, "geometry": { "type": "Point", "coordinates": [ -84.406248053383919, 35.677978651320856 ] } },
{ "type": "Feature", "properties": { "name": "Phoenix", "STATEFP": "04", "city_class": 1 }, "geometry": { "type": "Point", "coordinates": [ -112.046067296634789, 33.610525251439256 ] } },
{ "type": "Feature", "properties": { "name": "Phoenix", "STATEFP": "17", "city_class": 1 }, "geometry": { "type": "Point", "coordinates": [ -87.630288279393923, 41.611790798084527 ] } },
{ "type": "Feature", "properties": { "name": "Phoenix", "STATEFP": "36", "city_class": 1 }, "geometry": { "type": "Point", "coordinates": [ -76.297503575252122, 43.231365545929464 ] } },
{ "type": "Feature", "properties": { "name": "Phoenix", "STATEFP": "41", "city_class": 1 }, "geometry": { "type": "Point", "coordinates": [ -122.821881381423296, 42.277450705139714 ] } },
{ "type": "Feature", "properties": { "name": "San Antonio", "STATEFP": "12", "city_class": 1 }, "geometry": { "type": "Point", "coordinates": [ -82.278568086759776, 28.342480044569012 ] } },
{ "type": "Feature", "properties": { "name": "San Antonio", "STATEFP": "35", "city_class": 1 }, "geometry": { "type": "Point", "coordinates": [ -106.869431855766805, 33.91459341712644 ] } },
{ "type": "Feature", "properties": { "name": "San Antonio", "STATEFP": "48", "city_class": 1 }, "geometry": { "type": "Point", "coordinates": [ -98.558747921544679, 29.457558987762642 ] } },
{ "type": "Feature", "properties": { "name": "San Diego", "STATEFP": "06", "city_class": 1 }, "geometry": { "type": "Point", "coordinates": [ -117.137617653042994, 32.80129886463304 ] } },
{ "type": "Feature", "properties": { "name": "San Diego", "STATEFP": "48", "city_class": 1 }, "geometry": { "type": "Point", "coordinates": [ -98.234347764274972, 27.76084294299238 ] } },
{ "type": "Feature", "properties": { "name": "Denver", "STATEFP": "08", "city_class": 2 }, "geometry": { "type": "Point", "coordinates": [ -104.954808833575967, 39.757476502762756 ] } },
{ "type": "Feature", "properties": { "name": "Denver", "STATEFP": "18", "city_class": 2 }, "geometry": { "type": "Point", "coordinates": [ -86.077194823479786, 40.864795335849124 ] } },
{ "type": "Feature", "properties": { "name": "Denver", "STATEFP": "19", "city_class": 2 }, "geometry": { "type": "Point", "coordinates": [ -92.33235549134136, 42.667240459616799 ] } },
{ "type": "Feature", "properties": { "name": "Denver", "STATEFP": "29", "city_class": 2 }, "geometry": { "type": "Point", "coordinates": [ -94.32231085919797, 40.398756308396926 ] } },
{ "type": "Feature", "properties": { "name": "Denver", "STATEFP": "37", "city_class": 2 }, "geometry": { "type": "Point", "coordinates": [ -81.031439857574597, 35.526990760819743 ] } },
{ "type": "Feature", "properties": { "name": "Denver", "STATEFP": "42", "city_class": 2 }, "geometry": { "type": "Point", "coordinates": [ -76.136159448880932, 40.232559608955796 ] } },
{ "type": "Feature", "properties": { "name": "Des Moines", "STATEFP": "19", "city_class": 2 }, "geometry": { "type": "Point", "coordinates": [ -93.616461647981808, 41.570468888124424 ] } },
{ "type": "Feature", "properties": { "name": "Des Moines", "STATEFP": "35", "city_class": 2 }, "geometry": { "type": "Point", "coordinates": [ -103.836489812467562, 36.761244872625603 ] } },
{ "type": "Feature", "properties": { "name": "Des Moines", "STATEFP": "53", "city_class": 2 }, "geometry": { "type": "Point", "coordinates": [ -122.314156844312592, 47.389471954742149 ] } },
{ "type": "Feature", "properties": { "name": "Kansas City", "STATEFP": "20", "city_class": 2 }, "geometry": { "type": "Point", "coordinates": [ -94.757774383300415, 39.122210727351643 ] } },
{ "type": "Feature", "properties": { "name": "Kansas City", "STATEFP": "29", "city_class": 2 }, "geometry": { "type": "Point", "coordinates": [ -94.547115890930328, 39.089412584152214 ] } },
{ "type": "Feature", "properties": { "name": "Lincoln", "STATEFP": "31", "city_class": 2 }, "geometry": { "type": "Point", "coordinates": [ -96.676382367384406, 40.804510702465194 ] } },
{ "type": "Feature", "properties": { "name": "Minneapolis", "STATEFP": "20", "city_class": 2 }, "geometry": { "type": "Point", "coordinates": [ -97.702661332007395, 39.119656736166014 ] } },
{ "type": "Feature", "properties": { "name": "Minneapolis", "STATEFP": "27", "city_class": 2 }, "geometry": { "type": "Point", "coordinates": [ -93.268193116639083, 44.970357130869338 ] } },
{ "type": "Feature", "properties": { "name": "Oklahoma City", "STATEFP": "40", "city_class": 2 }, "geometry": { "type": "Point", "coordinates": [ -97.575714721849948, 35.48139426805146 ] } },
{ "type": "Feature", "properties": { "name": "Omaha", "STATEFP": "31", "city_class": 2 }, "geometry": { "type": "Point", "coordinates": [ -96.04966764057248, 41.291876181351185 ] } },
{ "type": "Feature", "properties": { "name": "Sioux Falls", "STATEFP": "46", "city_class": 2 }, "geometry": { "type": "Point", "coordinates": [ -96.728578436857703, 43.553316435787693 ] } },
{ "type": "Feature", "properties": { "name": "St. Louis", "STATEFP": "26", "city_class": 2 }, "geometry": { "type": "Point", "coordinates": [ -84.607405391482004, 43.406409102795735 ] } },
{ "type": "Feature", "properties": { "name": "St. Louis", "STATEFP": "29", "city_class": 2 }, "geometry": { "type": "Point", "coordinates": [ -90.240145455009056, 38.653904242277463 ] } },
{ "type": "Feature", "properties": { "name": "St. Louis", "STATEFP": "40", "city_class": 2 }, "geometry": { "type": "Point", "coordinates": [ -96.857471188013207, 35.080029185306699 ] } },
{ "type": "Feature", "properties": { "name": "Wichita", "STATEFP": "20", "city_class": 2 }, "geometry": { "type": "Point", "coordinates": [ -97.387239269986026, 37.680892986402341 ] } },
{ "type": "Feature", "properties": { "name": "Cheyenne", "STATEFP": "40", "city_class": 3 }, "geometry": { "type": "Point", "coordinates": [ -99.670021642536469, 35.608776017201869 ] } },
{ "type": "Feature", "properties": { "name": "Cheyenne", "STATEFP": "56", "city_class": 3 }, "geometry": { "type": "Point", "coordinates": [ -104.726427744774838, 41.124724635884398 ] } },
{ "type": "Feature", "properties": { "name": "Dodge City", "STATEFP": "01", "city_class": 3 }, "geometry": { "type": "Point", "coordinates": [ -86.885420953747172, 34.043255048269607 ] } },
{ "type": "Feature", "properties": { "name": "Dodge City", "STATEFP": "20", "city_class": 3 }, "geometry": { "type": "Point", "coordinates": [ -100.023910604438569, 37.765818063965767 ] } },
{ "type": "Feature", "properties": { "name": "Garden City", "STATEFP": "01", "city_class": 3 }, "geometry": { "type": "Point", "coordinates": [ -86.747864852598298, 34.015237180324512 ] } },
{ "type": "Feature", "properties": { "name": "Garden City", "STATEFP": "08", "city_class": 3 }, "geometry": { "type": "Point", "coordinates": [ -104.689288370040643, 40.39458610273298 ] } },
{ "type": "Feature", "properties": { "name": "Garden City", "STATEFP": "13", "city_class": 3 }, "geometry": { "type": "Point", "coordinates": [ -81.168770806656994, 32.100660589740123 ] } },
{ "type": "Feature", "properties": { "name": "Garden City", "STATEFP": "16", "city_class": 3 }, "geometry": { "type": "Point", "coordinates": [ -116.262893538344585, 43.652570509747328 ] } },
{ "type": "Feature", "properties": { "name": "Garden City", "STATEFP": "19", "city_class": 3 }, "geometry": { "type": "Point", "coordinates": [ -93.395367652700727, 42.245477261036719 ] } },
{ "type": "Feature", "properties": { "name": "Garden City", "STATEFP": "20", "city_class": 3 }, "geometry": { "type": "Point", "coordinates": [ -100.858055049321436, 37.968898336096728 ] } },
{ "type": "Feature", "properties": { "name": "Garden City", "STATEFP": "26", "city_class": 3 }, "geometry": { "type": "Point", "coordinates": [ -83.338127719204678, 42.324858588827631 ] } },
{ "type": "Feature", "properties": { "name": "Garden City", "STATEFP": "27", "city_class": 3 }, "geometry": { "type": "Point", "coordinates": [ -94.170933571610462, 44.047465990453908 ] } },
{ "type": "Feature", "properties": { "name": "Garden City", "STATEFP": "29", "city_class": 3 }, "geometry": { "type": "Point", "coordinates": [ -94.197188417722828, 38.559679460190722 ] } },
{ "type": "Feature", "properties": { "name": "Garden City", "STATEFP": "36", "city_class": 3 }, "geometry": { "type": "Point", "coordinates": [ -73.64451071342647, 40.726614811593954 ] } },
{ "type": "Feature", "properties": { "name": "Garden City", "STATEFP": "45", "city_class": 3 }, "geometry": { "type": "Point", "coordinates": [ -79.003426775195678, 33.594232506962022 ] } },
{ "type": "Feature", "properties": { "name": "Garden City", "STATEFP": "46", "city_class": 3 }, "geometry": { "type": "Point", "coordinates": [ -97.580429647130543, 44.960133618209099 ] } },
{ "type": "Feature", "properties": { "name": "Garden City", "STATEFP": "48", "city_class": 3 }, "geometry": { "type": "Point", "coordinates": [ -101.484721824227677, 31.866213473682485 ] } },
{ "type": "Feature", "properties": { "name": "Garden City", "STATEFP": "49", "city_class": 3 }, "geometry": { "type": "Point", "coordinates": [ -111.405144663352161, 41.9403444302556 ] } },
{ "type": "Feature", "properties": { "name": "Grand Island", "STATEFP": "31", "city_class": 3 }, "geometry": { "type": "Point", "coordinates": [ -98.36382466931056, 40.908312036293779 ] } },
{ "type": "Feature", "properties": { "name": "Hastings", "STATEFP": "31", "city_class": 3 }, "geometry": { "type": "Point", "coordinates": [ -98.38723976714769, 40.604760789267722 ] } },
{ "type": "Feature", "properties": { "name": "Hays", "STATEFP": "20", "city_class": 3 }, "geometry": { "type": "Point", "coordinates": [ -99.321238006505126, 38.886091956548334 ] } },
{ "type": "Feature", "properties": { "name": "Hays", "STATEFP": "30", "city_class": 3 }, "geometry": { "type": "Point", "coordinates": [ -108.6662721610451, 48.01270183733314 ] } },
{ "type": "Feature", "properties": { "name": "Hays", "STATEFP": "37", "city_class": 3 }, "geometry": { "type": "Point", "coordinates": [ -81.115555906910288, 36.243218868714521 ] } },
{ "type": "Feature", "properties": { "name": "Hays", "STATEFP": "48", "city_class": 3 }, "geometry": { "type": "Point", "coordinates": [ -97.872091448798244, 30.118338422430654 ] } },
{ "type": "Feature", "properties": { "name": "Kearney", "STATEFP": "31", "city_class": 3 }, "geometry": { "type": "Point", "coordinates": [ -99.092091617462856, 40.701835767268392 ] } },
{ "type": "Feature", "properties": { "name": "Norfolk", "STATEFP": "31", "city_class": 3 }, "geometry": { "type": "Point", "coordinates": [ -97.419308024207638, 42.014312362831845 ] } },
{ "type": "Feature", "properties": { "name": "Rapid City", "STATEFP": "26", "city_class": 3 }, "geometry": { "type": "Point", "coordinates": [ -85.292734277868092, 44.838591606725636 ] } },
{ "type": "Feature", "properties": { "name": "Rapid City", "STATEFP": "46", "city_class": 3 }, "geometry": { "type": "Point", "coordinates": [ -103.224411983438657, 44.066335445976463 ] } },
{ "type": "Feature", "properties": { "name": "Scottsbluff", "STATEFP": "31", "city_class": 3 }, "geometry": { "type": "Point", "coordinates": [ -103.659315781016318, 41.86886905204463 ] } },
{ "type": "Feature", "properties": { "name": "Ainsworth", "STATEFP": "31", "city_class": 4 }, "geometry": { "type": "Point", "coordinates": [ -99.857392791390879, 42.547716566976256 ] } },
{ "type": "Feature", "properties": { "name": "Broken Bow", "STATEFP": "31", "city_class": 4 }, "geometry": { "type": "Point", "coordinates": [ -99.644993170196756, 41.404588687877563 ] } },
{ "type": "Feature", "properties": { "name": "Burwell", "STATEFP": "31", "city_class": 4 }, "geometry": { "type": "Point", "coordinates": [ -99.133250285776001, 41.781750191360622 ] } },
{ "type": "Feature", "properties": { "name": "Imperial", "STATEFP": "31", "city_class": 4 }, "geometry": { "type": "Point", "coordinates": [ -101.641610170060034, 40.515869525243168 ] } },
{ "type": "Feature", "properties": { "name": "North Platte", "STATEFP": "31", "city_class": 4 }, "geometry": { "type": "Point", "coordinates": [ -100.7677415893328, 41.127526670751877 ] } },
{ "type": "Feature", "properties": { "name": "O'Neill", "STATEFP": "31", "city_class": 4 }, "geometry": { "type": "Point", "coordinates": [ -98.64711144976205, 42.463699061341437 ] } },
{ "type": "Feature", "properties": { "name": "Ogallala", "STATEFP": "31", "city_class": 4 }, "geometry": { "type": "Point", "coordinates": [ -101.72056135957321, 41.134092868883435 ] } },
{ "type": "Feature", "properties": { "name": "Valentine", "STATEFP": "31", "city_class": 4 }, "geometry": { "type": "Point", "coordinates": [ -100.554253938361043, 42.870757966750602 ] } },
{ "type": "Feature", "properties": { "name": "Arthur", "STATEFP": "31", "city_class": 5 }, "geometry": { "type": "Point", "coordinates": [ -101.693217387094407, 41.570635391778886 ] } },
{ "type": "Feature", "properties": { "name": "Curtis", "STATEFP": "31", "city_class": 5 }, "geometry": { "type": "Point", "coordinates": [ -100.510219452494113, 40.633579809090989 ] } },
{ "type": "Feature", "properties": { "name": "Merriman", "STATEFP": "31", "city_class": 5 }, "geometry": { "type": "Point", "coordinates": [ -101.699507472961258, 42.922932316292815 ] } },
{ "type": "Feature", "properties": { "name": "Mullen", "STATEFP": "31", "city_class": 5 }, "geometry": { "type": "Point", "coordinates": [ -101.043524396118798, 42.043317761612165 ] } },
{ "type": "Feature", "properties": { "name": "Paxton", "STATEFP": "31", "city_class": 5 }, "geometry": { "type": "Point", "coordinates": [ -101.352177840534353, 41.123592135938601 ] } },
{ "type": "Feature", "properties": { "name": "Stapleton", "STATEFP": "31", "city_class": 5 }, "geometry": { "type": "Point", "coordinates": [ -100.514709747935214, 41.480445510096558 ] } },
{ "type": "Feature", "properties": { "name": "Sutherland", "STATEFP": "31", "city_class": 5 }, "geometry": { "type": "Point", "coordinates": [ -101.128953356805255, 41.160724019296552 ] } },
{ "type": "Feature", "properties": { "name": "Thedford", "STATEFP": "31", "city_class": 5 }, "geometry": { "type": "Point", "coordinates": [ -100.574424574884645, 41.98012954212723 ] } },
{ "type": "Feature", "properties": { "name": "Tryon", "STATEFP": "31", "city_class": 5 }, "geometry": { "type": "Point", "coordinates": [ -100.953411507980306, 41.558851275555732 ] } }
]
}
